INTELSAT 1R (IS-1R)     
1 26608U 00072A   21118.84882380 -.00000142  00000-0  00000-0 0  9993
2 26608   3.4725  83.5720 0000622 191.2149  44.9199  1.00271816 22519
PHASE 3D (AO-40)        
1 26609U 00072B   21113.98127087 -.00000435  00000-0  00000-0 0  9995
2 26609   9.1867 331.8485 7947526 247.3437  16.5270  1.25586769 93909
STRV 1C                 
1 26610U 00072C   21114.67679710 -.00000254  00000-0  36497-3 0  9990
2 26610   6.4149 282.8546 7341135  22.3404 357.6528  2.03500010151829
STRV 1D                 
1 26611U 00072D   21118.61119317  .00000118  00000-0 -18900-3 0  9999
2 26611   6.4081 282.6368 7343273  22.7132 169.1950  2.03356133 52338
ARIANE 5 R/B            
1 26612U 00072E   21118.26204875  .00000264  00000-0  28829-2 0  9996
2 26612   7.0492 316.4362 7352949 314.5585   4.9145  2.01742358150771
ARIANE 5 DEB [SYLDA]    
1 26613U 00072F   21118.61084424  .00000136  00000-0  72538-3 0  9997
2 26613   6.5751 291.4688 7345634   5.7011 195.7036  2.03007012151191
ANIK F1                 
1 26624U 00076A   21118.84980038 -.00000066  00000-0  00000-0 0  9999
2 26624   0.4046  97.9217 0009288 331.4000 344.4452  1.00271359 24335
SL-12 R/B(2)            
1 26629U 00077D   21117.55012282  .00000143  00000-0  00000-0 0  9994
2 26629  61.5275 151.6452 5151719 252.9075  46.4071  1.45599274108362
ASTRA 2D                
1 26638U 00081A   21118.46999468  .00000059  00000-0  00000-0 0  9996
2 26638   6.4327  62.9186 0002264 315.4875  64.6879  1.00269728 34101
AMC-8 (GE-8)            
1 26639U 00081B   21118.71884229  .00000084  00000-0  00000-0 0  9991
2 26639   1.4203  92.7839 0002519 305.8031 302.1012  1.00270942 74525
CHINASAT 31 (BEIDOU 1B) 
1 26643U 00082A   21118.89601841  .00000018  00000-0  00000-0 0  9990
2 26643   9.9372  39.3937 0087597  39.5025 133.7894  0.99251594 33462
COSMOS 1285 DEB         
1 26680U 81071L   21114.38198703  .00000955  00000-0  00000-0 0  9996
2 26680  64.0126 232.2464 6543633  47.6710 351.6520  1.98233126170736
ARIANE 1 DEB            
1 26683U 85056H   21118.74719396 -.00000463  00000-0 -18612-1 0  9992
2 26683   5.9903 303.0274 7098680 344.0335 268.4234  2.22769892 69081
ARIANE 1 DEB            
1 26685U 85056K   21115.68913234 -.00000208  00000-0  00000-0 0  9998
2 26685   7.7770 350.4744 7039985 213.8863  68.6904  2.16289383 60142
USA 157 (MILSTAR-2 2)   
1 26715U 01009A   21118.47134681  .00000010  00000-0  00000-0 0  9999
2 26715   9.6234  29.0453 0003372 331.1840 261.7495  1.00269385 14143
TITAN 4 CENTAUR R/B     
1 26716U 01009B   21118.21446216 -.00000293  00000-0  00000-0 0  9996
2 26716  11.2550  23.8518 0017536  78.3183 281.7985  1.00493345  7407
ARIANE 2 DEB            
1 26717U 89006C   21118.63407659 -.00000010  00000-0  14263-3 0  9990
2 26717   7.8777 137.6527 7161291 341.7837 242.9180  2.26221336167997
EUTELSAT 133 WEST A     
1 26719U 01011A   21118.63218323  .00000073  00000-0  00000-0 0  9999
2 26719   2.7094  86.4272 0005476 318.1770 266.9865  1.00273993 73733
ARIANE 5 R/B            
1 26721U 01011C   21118.85231323 -.00000115  00000-0  12272-2 0  9995
2 26721   1.2978 234.6205 7045164 319.4660  55.5147  2.24562001165275
ARIANE 5 DEB [SYLDA]    
1 26722U 01011D   21118.84864932 -.00000042  00000-0  40944-2 0  9999
2 26722   1.6646 257.4877 7057785 275.2650  59.2891  2.22882374164070
BLOCK DM-SL R/B         
1 26725U 01012B   21118.74126191 -.00000127  00000-0  17814-2 0  9994
2 26725   1.2118 313.6198 7053727 257.4846 326.5337  2.23574520164364
EKRAN 21                
1 26736U 01014A   21118.89767590  .00000089  00000-0  00000-0 0  9991
2 26736  13.0547  27.4079 0035458  26.1988 168.9367  0.99585875 73257
BREEZE-M R/B            
1 26738U 01014C   21118.86339559 -.00000139  00000-0  00000+0 0  9996
2 26738  13.5509  28.3343 0169412 189.1555  50.9981  0.97964200 71839
GSAT-1                  
1 26745U 01015A   21118.93045578 -.00000272  00000-0  00000-0 0  9997
2 26745  12.0937  18.0275 0233652 246.7153 358.0413  1.03823465 76054
BLOCK DM-SL R/B         
1 26762U 01018B   21118.73785972 -.00000113  00000-0  11268-2 0  9990
2 26762   1.5270   9.3485 7061343 234.1264 250.4478  2.23842491163426
INTELSAT 10 (IS-10)     
1 26766U 01019A   21118.82618899 -.00000341  00000-0  00000+0 0  9990
2 26766   4.6121  76.6917 0005647 337.0392 222.0865  1.00623997 73123
BLOCK DM R/B            
1 26769U 01019D   21117.21561721 -.00000097  00000-0  00000-0 0  9995
2 26769  16.4566 203.7785 5118158 352.9907   3.7061  1.86699841136094
COSMOS 1247 DEB         
1 26786U 81016J   21118.06737954 -.00000528  00000-0  00000+0 0  9994
2 26786  67.6544 138.8595 6350948  15.0757 357.4789  2.05155537186238
ARIANE 3 DEB            
1 26806U 88081G   21118.63884694 -.00000024  00000-0  00000-0 0  9995
2 26806   5.5960 240.9777 7044019 242.0459  64.6376  2.17372728165054
ARIANE 3 DEB            
1 26807U 88081H   21111.87192963  .00000017  00000-0  00000+0 0  9996
2 26807   5.5224 219.4298 7044316 281.8536 352.2548  2.17357486172503
ARIANE 44LP DEB         
1 26808U 88109L   21118.85475583 -.00000106  00000-0  18047-2 0  9998
2 26808   6.9066 328.8100 7208321 271.1251  14.0564  2.14277739 56178
ARIANE 44LP DEB         
1 26810U 88109M   21117.62060443 -.00000100  00000-0  15329-2 0  9994
2 26810   7.1186  14.2573 7137764 174.2229  77.2221  2.16236691164958
ARIANE 44LP DEB         
1 26812U 88109P   21118.24244089 -.00000050  00000-0  00000-0 0  9997
2 26812   6.8001  70.7338 7008583  64.1406  12.3545  2.21665151188574
INTELSAT 901 (IS-901)   
1 26824U 01024A   21119.09912648 -.00000208  00000-0  00000+0 0  9992
2 26824   0.0586  85.6409 0001209 330.0218 169.7848  1.00269984 72780
ASTRA 2C                
1 26853U 01025A   21118.74797907  .00000036  00000-0  00000+0 0  9993
2 26853   3.5724  82.9286 0003737 297.6117 116.7948  1.00062796 72775
SL-12 R/B(2)            
1 26855U 01025C   21118.94657109 -.00000151  00000-0  00000-0 0  9996
2 26855  15.9630 297.2288 4964767 271.6186 334.6749  1.84790679134111
USA 159 (DSP 21)        
1 26880U 01033A   21118.91251330 -.00000303  00000-0  00000-0 0  9995
2 26880  11.0566  28.3411 0000623 282.2907 185.8190  1.00276573 14160
IUS R/B(2)              
1 26883U 01033D   21117.83463065  .00000064  00000-0  00000-0 0  9991
2 26883  11.1443  28.6166 0011003 353.4537   6.4514  0.99889646  7047
COSMOS 2379             
1 26892U 01037A   21118.89723971  .00000123  00000-0  00000+0 0  9992
2 26892  11.6676  26.8946 0001467  72.3279 120.7878  1.00188378 72063
SL-12 R/B(2)            
1 26895U 01037D   21118.88541743 -.00000183  00000-0  00000-0 0  9997
2 26895  11.6464  27.0884 0026506  32.9524 200.3838  1.00184850 71994
INTELSAT 902 (IS-902)   
1 26900U 01039A   21118.87926912 -.00000287  00000-0  00000-0 0  9995
2 26900   1.3796  93.3670 0003433 321.8003  68.3387  1.00272485 71892
SL-12 R/B(2)            
1 26939U 01045D   21118.86339559 -.00000339  00000-0  00000+0 0  9995
2 26939  12.4468  25.5606 0030409 349.8196 255.3694  1.00258303 72045
COSMOS 917 DEB          
1 26964U 77047E   21110.37813816  .00000523  00000-0  00000-0 0  9994
2 26964  64.3327 161.7709 6772569  38.9124 354.2741  2.02599143539204
COSMOS 1024 DEB         
1 26975U 78066F   21114.44439298 -.00000591  00000-0  00000-0 0  9994
2 26975  64.8124 254.2112 6657164 357.6196   0.1526  2.05723800178978
COSMOS 1191 DEB         
1 26977U 80057H   21116.45969380  .00000696  00000-0  00000-0 0  9997
2 26977  64.6080 222.2538 6359623  45.1582 351.5338  1.99744422142647
ARIANE 3 DEB            
1 27027U 88081K   21119.11389498  .00000096  00000-0  63848-2 0  9996
2 27027   8.3465 243.7959 7152064 170.0753 300.0847  2.21193314177882
ARIANE 2 DEB            
1 27034U 89006P   21118.52234544 -.00000075  00000-0  16124-2 0  9990
2 27034   7.7318 258.4531 7104490 111.5654 354.1819  2.24822621162391
ARIANE 2 DEB            
1 27039U 89006U   21118.11908584 -.00000010  00000-0  73045-4 0  9998
2 27039   7.8035 144.0809 7162336 329.4460   7.7272  2.26117099163673
ARIANE 2 DEB            
1 27040U 89006V   21115.54808117 -.00000185  00000-0 -36954-2 0  9995
2 27040   8.4244  10.3867 7053554 250.0811   8.7393  2.23732924161381
ARIANE 2 DEB            
1 27042U 89006X   21118.70165681 -.00000054  00000-0  20238-2 0  9992
2 27042   7.8484 230.7353 7124884 163.8345 286.1299  2.25125281 59239
ARIANE 2 DEB            
1 27043U 89006Y   21112.54276420 -.00000349  00000-0 -42811-2 0  9992
2 27043   7.8544 245.2277 7113516 135.9809 354.5290  2.25016192162133
ARIANE 2 DEB            
1 27046U 89006AB  21118.47540330 -.00000140  00000-0 -37053-2 0  9998
2 27046   7.8768 306.5335 7087257  19.4081  58.9250  2.24241623 69652
USA 164 (MILSTAR-2 3)   
1 27168U 02001A   21119.02410572  .00000094  00000-0  00000+0 0  9994
2 27168   9.0850  30.6660 0002123  25.3989 188.7451  1.00270378 12840
TITAN 4 CENTAUR R/B     
1 27169U 02001B   21118.40576766  .00000135  00000-0  00000-0 0  9991
2 27169   7.5449  36.7284 0052957  86.4107 274.0666  1.00167928  7585
ARIANE 42L R/B          
1 27299U 02002B   21119.06648814 -.00000038  00000-0  42937-3 0  9994
2 27299   3.9212  90.5170 7261352 131.7828 318.5472  2.21148165155232
ECHOSTAR 7              
1 27378U 02006A   21118.85535475 -.00000005  00000-0  00000-0 0  9996
2 27378   0.0180 252.8871 0002689  96.0088  57.2629  1.00268416 31796
INTELSAT 904 (IS-904)   
1 27380U 02007A   21118.88345646 -.00000218  00000-0  00000-0 0  9998
2 27380   2.2164  90.1611 0003686 317.3850  98.0697  1.00271194 32969
TDRS 9                  
1 27389U 02011A   21118.73341068 -.00000290  00000-0  00000-0 0  9990
2 27389   8.1484  64.5575 0025874 291.9238  62.2703  1.00272974 71637
ASTRA 3A                
1 27400U 02015B   21118.87194132 -.00000207  00000-0  00000-0 0  9999
2 27400   6.5505  61.7250 0001835 343.2625  39.2156  1.00271005 69927
SL-12 R/B(2)            
1 27404U 02016B   21118.16217319 -.00000351  00000-0  00000-0 0  9999
2 27404  25.3135 301.8695 6204560 309.3153  10.1171  2.06291706143795
